[{"OBJECT_NAME":"NUSAT-49 (KLARA DAN VON NEUMANN)","OBJECT_ID":"2024-149AJ","EPOCH":"2026-03-09T19:09:16.004160","MEAN_MOTION":15.30828857,"ECCENTRICITY":0.00011321,"INCLINATION":97.3807,"RA_OF_ASC_NODE":150.738,"ARG_OF_PERICENTER":286.7761,"MEAN_ANOMALY":73.3356,"EPHEMERIS_TYPE":0,"CLASSIFICATION_TYPE":"U","NORAD_CAT_ID":60500,"ELEMENT_SET_NO":999,"REV_AT_EPOCH":8693,"BSTAR":0.00043568345,"MEAN_MOTION_DOT":0.00012912,"MEAN_MOTION_DDOT":0},{"OBJECT_NAME":"STARLINK-34741","OBJECT_ID":"2025-167V","EPOCH":"2026-03-09T01:29:36.472416","MEAN_MOTION":15.30205441,"ECCENTRICITY":9.137e-5,"INCLINATION":53.1598,"RA_OF_ASC_NODE":29.5813,"ARG_OF_PERICENTER":122.707,"MEAN_ANOMALY":237.4019,"EPHEMERIS_TYPE":0,"CLASSIFICATION_TYPE":"U","NORAD_CAT_ID":65097,"ELEMENT_SET_NO":999,"REV_AT_EPOCH":3338,"BSTAR":0.00081964852,"MEAN_MOTION_DOT":0.00023999,"MEAN_MOTION_DDOT":0}]
