NUSAT-49 (KLARA DAN VO*)
1 60500U 24149AJ  26068.79810190  .00012912  00000+0  43568-3 0  9991
2 60500  97.3807 150.7380 0001132 286.7761  73.3356 15.30828857 86935
STARLINK-34741          
1 65097U 25167V   26068.06222769  .00023999  00000+0  81965-3 0  9997
2 65097  53.1598  29.5813 0000913 122.7070 237.4019 15.30205441 33388
